GLOBALSTAR M084         
1 38040U 11080A   24244.10376517 -.00000096  00000+0  43359-4 0  9994
2 38040  51.9990 211.5941 0000490  97.4412 342.5741 12.62266387586034
GLOBALSTAR M080         
1 38041U 11080B   24244.22109409 -.00000099  00000+0  25725-4 0  9992
2 38041  52.0042 212.7419 0000710  83.8943 289.5606 12.62264794586176
GLOBALSTAR M082         
1 38042U 11080C   24244.50656560 -.00000105  00000+0 -74656-5 0  9996
2 38042  52.0067 167.2886 0000346 344.5059 186.8622 12.62265540586915
GLOBALSTAR M092         
1 38043U 11080D   24244.38720052 -.00000106  00000+0 -14056-4 0  9999
2 38043  52.0069 258.0145 0000325 121.7812 347.0901 12.62265541585353
GLOBALSTAR M090         
1 38044U 11080E   24244.53297219 -.00000097  00000+0  36479-4 0  9992
2 38044  51.9878 161.3902 0000422  27.9119 143.3882 12.62266685587034
GLOBALSTAR M086         
1 38045U 11080F   24244.55927691 -.00000103  00000+0  27673-5 0  9994
2 38045  51.9890 161.8376 0001436  43.8304 127.7597 12.62266160586988
GLOBALSTAR M097         
1 39072U 13005A   24244.78596165 -.00000080  00000+0  13198-3 0  9996
2 39072  52.0048  75.4023 0000825  59.8280 300.2668 12.62270071534342
GLOBALSTAR M093         
1 39073U 13005B   24244.20470745 -.00000076  00000+0  15327-3 0  9990
2 39073  51.9808  70.9345 0000796  56.6893 303.4049 12.62263442534144
